OBJECT_NAME,OBJECT_ID,EPOCH,MEAN_MOTION,ECCENTRICITY,INCLINATION,RA_OF_ASC_NODE,ARG_OF_PERICENTER,MEAN_ANOMALY,EPHEMERIS_TYPE,CLASSIFICATION_TYPE,NORAD_CAT_ID,ELEMENT_SET_NO,REV_AT_EPOCH,BSTAR,MEAN_MOTION_DOT,MEAN_MOTION_DDOT
CUBEBUG-2 (LO-74),2013-066AA,2026-06-09T02:12:00.699264,14.93697738,.0059191,97.8903,109.0359,55.3304,305.3474,0,U,39440,999,67578,.31702E-3,.3409E-4,0
FUNCUBE-1 (AO-73),2013-066AE,2026-06-09T04:01:43.625856,15.09393647,.0034829,97.8270,131.4468,228.8451,130.9771,0,U,39444,999,67845,.31574E-3,.5048E-4,0
UWE-3,2013-066AG,2026-06-09T03:04:03.741312,14.96959057,.0048769,97.8686,116.1479,348.2293,11.7784,0,U,39446,999,67637,.30256E-3,.3499E-4,0
UNISAT-6,2014-033C,2026-06-09T03:10:28.725024,14.88202581,.0046442,97.7870,312.9873,95.0707,265.5813,0,U,40012,999,64496,.2655E-3,.2442E-4,0
DUCHIFAT-1,2014-033M,2026-06-09T02:05:18.604032,15.62989578,.0004325,98.0464,218.1182,130.2252,229.9384,0,U,40021,999,65448,.90222E-3,.8235E-3,0
QB50P1,2014-033R,2026-06-08T23:27:25.839360,15.18136091,.000721,98.0972,170.5484,248.4220,111.6244,0,U,40025,999,65178,.42192E-3,.8544E-4,0
LILACSAT-2,2015-049K,2026-06-09T03:28:31.469088,15.51177818,.0005276,97.4660,196.6818,284.1911,75.8755,0,U,40908,999,59450,.27027E-3,.15708E-3,0
FOX-1A (AO-85),2015-058D,2026-06-08T18:24:19.848096,14.90929725,.012997,64.7758,305.1507,59.8929,301.4993,0,U,40967,999,11231,.27655E-3,.3039E-4,0
CAS-2T & KS-1Q,2016-066G,2026-06-09T04:56:58.962336,14.44667476,.0342497,98.3822,236.0336,153.6291,208.2796,0,U,41847,999,50364,.22785E-3,.1572E-4,0
RADFXSAT (FOX-1B),2017-073E,2026-06-08T08:15:12.420000,15.12571253,.01508957,97.4721,26.7398,359.9259,0.1924,0,U,43017,999,46405,.33532705E-3,.7664E-4,0
DIWATA-2B,2018-084H,2026-06-09T04:00:49.836672,15.00413597,.0012026,98.1172,356.0277,196.6436,163.4393,0,U,43678,999,41501,.18582E-3,.2273E-4,0
ES'HAIL 2,2018-090A,2026-06-09T03:11:41.362368,1.00273570,.0001914,0.0166,288.7563,188.6888,213.8024,0,U,43700,999,2759,0,.161E-5,0
FOX-1CLIFF (AO-95),2018-099N,2026-06-09T01:56:46.237344,15.26538897,.0008826,97.4389,220.3580,27.1898,332.9801,0,U,43770,999,41198,.34498E-3,.8954E-4,0
ITASAT,2018-099AE,2026-06-09T02:48:06.578784,15.18954369,.0012984,97.4032,211.7901,28.2656,331.9281,0,U,43786,999,41168,.2528E-3,.5227E-4,0
JY1SAT (JO-97),2018-099AX,2026-06-09T03:14:32.466336,15.33397143,.0004209,97.4132,222.9432,303.3283,56.7556,0,U,43803,999,41239,.46531E-3,.14955E-3,0
UWE-4,2018-111E,2026-06-08T17:39:01.183968,15.45597672,.0007085,97.5854,87.7396,15.0599,345.0859,0,U,43880,999,40947,.71406E-3,.34399E-3,0
TIANYAN 01,2019-093C,2026-06-09T04:03:33.682176,14.86509678,.0014956,97.7528,232.5966,110.5394,249.7428,0,U,44881,999,35022,.1761E-3,.1508E-4,0
RS-44 & BREEZE-KM R/B,2019-096E,2026-06-09T00:44:10.149792,12.79748671,.02178,82.5218,345.1262,163.1883,197.6587,0,U,44909,999,30130,.74267E-4,.31E-6,0
SALSAT,2020-068K,2026-06-08T21:41:10.423104,15.29680035,.0008807,97.8856,162.4647,341.8369,18.2554,0,U,46495,999,31409,.27004E-3,.769E-4,0
XW-3 (CAS-9),2021-131B,2026-06-09T05:02:43.260288,14.41350764,.0005259,98.4971,252.6431,115.1731,245.0004,0,U,50466,999,23396,.18521E-3,.555E-5,0
GREENCUBE (IO-117),2022-080E,2026-06-01T11:09:37.753056,6.42583280,.00088692,70.1435,303.7143,293.3663,66.6064,0,U,53109,999,9105,0,-.3E-7,0
UMKA 1 (RS40S),2023-091G,2026-06-09T04:45:20.100384,15.20724572,.0013864,97.5054,218.9265,142.6984,217.5217,0,U,57172,999,16279,.23581E-3,.5129E-4,0
CUBESX-HSE 3 (RS42S),2023-091N,2026-06-09T03:14:51.033696,15.31009862,.0012146,97.5095,225.6217,119.5249,240.7205,0,U,57178,999,16319,.40716E-3,.12153E-3,0
MONITOR-3 (RS58S),2023-091Q,2026-06-09T03:24:41.290848,15.27677576,.001302,97.5087,223.5301,125.6118,234.6336,0,U,57180,999,16306,.34722E-3,.9342E-4,0
MONITOR-4 (RS57S),2023-091S,2026-06-09T04:29:30.651648,15.27772635,.0013022,97.5081,223.5460,125.8050,234.4401,0,U,57182,999,16307,.3448E-3,.9303E-4,0
MONITOR-2 (RS39S),2023-091U,2026-06-09T01:51:50.020128,15.18833825,.0012398,97.5076,218.4133,136.0149,224.2074,0,U,57184,999,16272,.1933E-3,.3964E-4,0
SVYATOBOR 1 (RS60S),2023-091X,2026-06-09T03:04:08.945184,15.26476537,.0010858,97.5092,223.9010,118.4882,241.7452,0,U,57187,999,16308,.31334E-3,.8113E-4,0
VIZARD-METEO (RS38S),2023-091Z,2026-06-09T03:13:07.391712,15.35768207,.0008679,97.5094,229.4595,101.7059,258.5159,0,U,57189,999,16345,.44016E-3,.15262E-3,0
POLYTECH-UNIVERSE 3 (RS46S),2023-091AB,2026-06-09T04:07:24.269088,15.19035577,.0016368,97.5052,218.0114,152.5857,207.6244,0,U,57191,999,16273,.23042E-3,.4773E-4,0
UTMN 2 (RS27S),2023-091AP,2026-06-09T03:46:31.895040,15.31853047,.0009485,97.5090,227.2681,107.5899,252.6379,0,U,57203,999,16331,.37057E-3,.11337E-3,0
